[{"OBJECT_NAME":"STARLINK-32427","OBJECT_ID":"2024-202D","EPOCH":"2026-03-09T22:00:01.999584","MEAN_MOTION":15.27532583,"ECCENTRICITY":0.00017071,"INCLINATION":43.0006,"RA_OF_ASC_NODE":225.6114,"ARG_OF_PERICENTER":288.1182,"MEAN_ANOMALY":323.4589,"EPHEMERIS_TYPE":0,"CLASSIFICATION_TYPE":"U","NORAD_CAT_ID":61848,"ELEMENT_SET_NO":999,"REV_AT_EPOCH":580,"BSTAR":0.002674787,"MEAN_MOTION_DOT":0.00073977,"MEAN_MOTION_DDOT":0},{"OBJECT_NAME":"COSMOS 252 DEB","OBJECT_ID":"1968-097BM","EPOCH":"2026-03-09T19:23:01.251168","MEAN_MOTION":14.84266968,"ECCENTRICITY":0.01906429,"INCLINATION":62.1994,"RA_OF_ASC_NODE":322.7421,"ARG_OF_PERICENTER":219.9576,"MEAN_ANOMALY":138.735,"EPHEMERIS_TYPE":0,"CLASSIFICATION_TYPE":"U","NORAD_CAT_ID":3900,"ELEMENT_SET_NO":999,"REV_AT_EPOCH":87477,"BSTAR":0.00094776544,"MEAN_MOTION_DOT":0.00010849,"MEAN_MOTION_DDOT":0}]
